GLOBALSTAR M063         
1 26081U 00008A   25363.25448774 -.00000069  00000+0  19220-3 0  9997
2 26081  51.9980 317.8312 0004813 333.2875 167.0275 11.86178569180721
GLOBALSTAR M062         
1 26082U 00008B   25362.95647037 -.00000034  00000+0  45979-3 0  9999
2 26082  51.9832 243.0193 0007008 159.8615 212.8625 12.43479438520851
GLOBALSTAR M060         
1 26083U 00008C   25363.03798186 -.00000085  00000+0  60627-4 0  9996
2 26083  52.0006 230.3557 0003456 141.1013   7.2825 12.17671629176109
GLOBALSTAR M064         
1 26084U 00008D   25363.16986122 -.00000066  00000+0  24793-3 0  9992
2 26084  52.0048  54.5834 0001735  89.0793 271.0239 11.88539817190287
GLOBALSTAR M065         
1 31571U 07020A   25351.59775860 -.00000114  00000+0 -59491-4 0  9998
2 31571  51.9915  28.0181 0009699 356.5964 173.4742 12.62015524856566
GLOBALSTAR M069         
1 31573U 07020C   25363.35301166 -.00000071  00000+0  20055-3 0  9995
2 31573  52.0052  12.8219 0001936 154.8994 307.5195 12.23465265858015
GLOBALSTAR M072         
1 31574U 07020D   25362.96567484 -.00000058  00000+0  35206-3 0  9998
2 31574  51.9895 193.4221 0001450  36.9666 114.3687 11.91654850854688
GLOBALSTAR M071         
1 31576U 07020F   25363.32135108 -.00000138  00000+0 -46664-3 0  9995
2 31576  52.0073  44.0304 0001215 141.5780 300.0099 12.18263391518721
